STARLINK-2722
1 18472C 21040AW  21326.16578406  .00001925  00000-0  12896-3 0  3263
2 18472  53.0527  32.9991 0001202  71.3242 187.9932 15.06409084    13
